OBJECT_NAME,OBJECT_ID,EPOCH,MEAN_MOTION,ECCENTRICITY,INCLINATION,RA_OF_ASC_NODE,ARG_OF_PERICENTER,MEAN_ANOMALY,EPHEMERIS_TYPE,CLASSIFICATION_TYPE,NORAD_CAT_ID,ELEMENT_SET_NO,REV_AT_EPOCH,BSTAR,MEAN_MOTION_DOT,MEAN_MOTION_DDOT
HAWK-5A,2022-057AB,2026-06-28T09:28:04.650528,15.51781033,.00047447,97.6612,338.9690,41.3514,318.8096,0,U,52757,999,22808,.29756654E-3,.17681E-3,0
HAWK-6B,2023-011A,2026-06-28T14:13:53.805504,15.23030336,.00014859,40.4992,285.5426,128.0792,232.0151,0,U,55324,999,18958,.17632653E-3,.4044E-4,0
HAWK-6C,2023-011C,2026-06-27T17:45:28.820160,15.23021235,.00020025,40.4981,287.3565,92.0316,268.0723,0,U,55326,999,18946,.18351775E-3,.4216E-4,0
HAWK-6A,2023-011D,2026-06-27T17:45:32.044608,15.23021081,.00015712,40.4990,288.9819,86.1482,273.9507,0,U,55327,999,18946,.18910235E-3,.435E-4,0
HAWK-7A,2023-054P,2026-06-28T13:48:03.843936,15.27475200,.00033665,97.2693,66.6232,31.2430,328.9009,0,U,56191,999,17876,.19990073E-3,.5302E-4,0
HAWK-7B,2023-054R,2026-06-28T15:22:17.818464,15.27474287,.00030169,97.2721,64.9549,48.0839,312.0658,0,U,56193,999,17877,.19691705E-3,.5222E-4,0
HAWK-7C,2023-054Y,2026-06-28T15:22:07.720032,15.27473942,.0002805,97.2698,65.7200,38.0086,322.1351,0,U,56200,999,17877,.19326913E-3,.5124E-4,0
