HAWK-5A                 
1 52757U 22057AB  26179.39449827  .00017681  00000+0  29757-3 0  9998
2 52757  97.6612 338.9690 0004744  41.3514 318.8096 15.51781033228083
HAWK-6B                 
1 55324U 23011A   26179.59298386  .00004044  00000+0  17633-3 0  9995
2 55324  40.4992 285.5426 0001485 128.0792 232.0151 15.23030336189589
HAWK-6C                 
1 55326U 23011C   26178.73991690  .00004216  00000+0  18352-3 0  9990
2 55326  40.4981 287.3565 0002002  92.0316 268.0723 15.23021235189460
HAWK-6A                 
1 55327U 23011D   26178.73995422  .00004350  00000+0  18910-3 0  9997
2 55327  40.4990 288.9819 0001571  86.1482 273.9507 15.23021081189462
HAWK-7A                 
1 56191U 23054P   26179.57504449  .00005302  00000+0  19990-3 0  9999
2 56191  97.2693  66.6232 0003366  31.2430 328.9009 15.27475200178769
HAWK-7B                 
1 56193U 23054R   26179.64048401  .00005222  00000+0  19692-3 0  9990
2 56193  97.2721  64.9549 0003016  48.0839 312.0658 15.27474287178775
HAWK-7C                 
1 56200U 23054Y   26179.64036713  .00005124  00000+0  19327-3 0  9998
2 56200  97.2698  65.7200 0002805  38.0086 322.1351 15.27473942178777
